{
    "links": {
        "self": "http://www.neowsapp.com/rest/v1/neo/3879267?api_key=iIulBulltgU6a56xZRHN4H3l9WmuAYTsLGpBGhQ2"
    },
    "id": "3879267",
    "neo_reference_id": "3879267",
    "name": "(2019 US1)",
    "designation": "2019 US1",
    "nasa_jpl_url": "http://ssd.jpl.nasa.gov/sbdb.cgi?sstr=3879267",
    "absolute_magnitude_h": 24.1,
    "estimated_diameter": {
        "kilometers": {
            "estimated_diameter_min": 0.040230458,
            "estimated_diameter_max": 0.0899580388
        },
        "meters": {
            "estimated_diameter_min": 40.2304579834,
            "estimated_diameter_max": 89.9580388169
        },
        "miles": {
            "estimated_diameter_min": 0.0249980399,
            "estimated_diameter_max": 0.0558973165
        },
        "feet": {
            "estimated_diameter_min": 131.9896957704,
            "estimated_diameter_max": 295.1379320721
        }
    },
    "is_potentially_hazardous_asteroid": false,
    "close_approach_data": [
        {
            "close_approach_date": "2019-05-21",
            "close_approach_date_full": "2019-May-21 01:18",
            "epoch_date_close_approach": 1558401480000,
            "relative_velocity": {
                "kilometers_per_second": "9.5472117118",
                "kilometers_per_hour": "34369.962162334",
                "miles_per_hour": "21356.1578780347"
            },
            "miss_distance": {
                "astronomical": "0.320249432",
                "lunar": "124.577029048",
                "kilometers": "47908632.89590984",
                "miles": "29769044.072602192"
            },
            "orbiting_body": "Earth"
        },
        {
            "close_approach_date": "2019-10-08",
            "close_approach_date_full": "2019-Oct-08 00:30",
            "epoch_date_close_approach": 1570494600000,
            "relative_velocity": {
                "kilometers_per_second": "11.5422704592",
                "kilometers_per_hour": "41552.1736530217",
                "miles_per_hour": "25818.9047901234"
            },
            "miss_distance": {
                "astronomical": "0.1553062628",
                "lunar": "60.4141362292",
                "kilometers": "23233486.112540236",
                "miles": "14436618.8354218168"
            },
            "orbiting_body": "Earth"
        }
    ],
    "orbital_data": {
        "orbit_id": "2",
        "orbit_determination_date": "2019-10-26 05:53:04",
        "first_observation_date": "2019-10-19",
        "last_observation_date": "2019-10-25",
        "data_arc_in_days": 6,
        "observations_used": 18,
        "orbit_uncertainty": "9",
        "minimum_orbit_intersection": ".14946",
        "jupiter_tisserand_invariant": "4.465",
        "epoch_osculation": "2458778.5",
        "eccentricity": ".3463656097279154",
        "semi_major_axis": "1.481118853800163",
        "inclination": "18.06301226472571",
        "ascending_node_longitude": "212.8917056226168",
        "orbital_period": "658.3901006168753",
        "perihelion_distance": ".9681102189241586",
        "perihelion_argument": "102.3633858616236",
        "aphelion_distance": "1.994127488676168",
        "perihelion_time": "2458709.033775264632",
        "mean_anomaly": "37.98331852392906",
        "mean_motion": ".5467882941476486",
        "equinox": "J2000",
        "orbit_class": {
            "orbit_class_type": "APO",
            "orbit_class_description": "Near-Earth asteroid orbits which cross the Earth’s orbit similar to that of 1862 Apollo",
            "orbit_class_range": "a (semi-major axis) > 1.0 AU; q (perihelion) < 1.017 AU"
        }
    },
    "is_sentry_object": false
}